<?xml version="1.0" encoding="UTF-8"?>
<ndm xmlns:xsi="http://www.w3.org/2001/XMLSchema-instance" xsi:noNamespaceSchemaLocation="https://sanaregistry.org/r/ndmxml_unqualified/ndmxml-2.0.0-master-2.0.xsd">
<omm id="CCSDS_OMM_VERS" version="2.0">
<header><CREATION_DATE/><ORIGINATOR/></header><body><segment><metadata><OBJECT_NAME>ONEWEB-0359</OBJECT_NAME><OBJECT_ID>2021-090G</OBJECT_ID><CENTER_NAME>EARTH</CENTER_NAME><REF_FRAME>TEME</REF_FRAME><TIME_SYSTEM>UTC</TIME_SYSTEM><MEAN_ELEMENT_THEORY>SGP4</MEAN_ELEMENT_THEORY></metadata><data><meanElements><EPOCH>2025-01-23T11:39:13.209984</EPOCH><MEAN_MOTION>13.20773354</MEAN_MOTION><ECCENTRICITY>.0002201</ECCENTRICITY><INCLINATION>87.9257</INCLINATION><RA_OF_ASC_NODE>15.8523</RA_OF_ASC_NODE><ARG_OF_PERICENTER>82.0309</ARG_OF_PERICENTER><MEAN_ANOMALY>278.1074</MEAN_ANOMALY></meanElements><tleParameters><EPHEMERIS_TYPE>0</EPHEMERIS_TYPE><CLASSIFICATION_TYPE>U</CLASSIFICATION_TYPE><NORAD_CAT_ID>49285</NORAD_CAT_ID><ELEMENT_SET_NO>999</ELEMENT_SET_NO><REV_AT_EPOCH>16325</REV_AT_EPOCH><BSTAR>.13756E-3</BSTAR><MEAN_MOTION_DOT>.69E-6</MEAN_MOTION_DOT><MEAN_MOTION_DDOT>0</MEAN_MOTION_DDOT></tleParameters></data></segment></body></omm>
<omm id="CCSDS_OMM_VERS" version="2.0">
<header><CREATION_DATE/><ORIGINATOR/></header><body><segment><metadata><OBJECT_NAME>ONEWEB-0360</OBJECT_NAME><OBJECT_ID>2021-090H</OBJECT_ID><CENTER_NAME>EARTH</CENTER_NAME><REF_FRAME>TEME</REF_FRAME><TIME_SYSTEM>UTC</TIME_SYSTEM><MEAN_ELEMENT_THEORY>SGP4</MEAN_ELEMENT_THEORY></metadata><data><meanElements><EPOCH>2025-01-23T11:25:34.761792</EPOCH><MEAN_MOTION>13.20770130</MEAN_MOTION><ECCENTRICITY>.0001967</ECCENTRICITY><INCLINATION>87.9257</INCLINATION><RA_OF_ASC_NODE>15.8597</RA_OF_ASC_NODE><ARG_OF_PERICENTER>85.0511</ARG_OF_PERICENTER><MEAN_ANOMALY>275.0847</MEAN_ANOMALY></meanElements><tleParameters><EPHEMERIS_TYPE>0</EPHEMERIS_TYPE><CLASSIFICATION_TYPE>U</CLASSIFICATION_TYPE><NORAD_CAT_ID>49286</NORAD_CAT_ID><ELEMENT_SET_NO>999</ELEMENT_SET_NO><REV_AT_EPOCH>16256</REV_AT_EPOCH><BSTAR>.11636E-3</BSTAR><MEAN_MOTION_DOT>.6E-6</MEAN_MOTION_DOT><MEAN_MOTION_DDOT>0</MEAN_MOTION_DDOT></tleParameters></data></segment></body></omm>
<omm id="CCSDS_OMM_VERS" version="2.0">
<header><CREATION_DATE/><ORIGINATOR/></header><body><segment><metadata><OBJECT_NAME>ONEWEB-0361</OBJECT_NAME><OBJECT_ID>2021-090J</OBJECT_ID><CENTER_NAME>EARTH</CENTER_NAME><REF_FRAME>TEME</REF_FRAME><TIME_SYSTEM>UTC</TIME_SYSTEM><MEAN_ELEMENT_THEORY>SGP4</MEAN_ELEMENT_THEORY></metadata><data><meanElements><EPOCH>2025-01-23T10:58:18.204960</EPOCH><MEAN_MOTION>13.20773751</MEAN_MOTION><ECCENTRICITY>.000168</ECCENTRICITY><INCLINATION>87.9260</INCLINATION><RA_OF_ASC_NODE>15.8582</RA_OF_ASC_NODE><ARG_OF_PERICENTER>83.7753</ARG_OF_PERICENTER><MEAN_ANOMALY>276.3572</MEAN_ANOMALY></meanElements><tleParameters><EPHEMERIS_TYPE>0</EPHEMERIS_TYPE><CLASSIFICATION_TYPE>U</CLASSIFICATION_TYPE><NORAD_CAT_ID>49287</NORAD_CAT_ID><ELEMENT_SET_NO>999</ELEMENT_SET_NO><REV_AT_EPOCH>16301</REV_AT_EPOCH><BSTAR>.2943E-3</BSTAR><MEAN_MOTION_DOT>.133E-5</MEAN_MOTION_DOT><MEAN_MOTION_DDOT>0</MEAN_MOTION_DDOT></tleParameters></data></segment></body></omm>
<omm id="CCSDS_OMM_VERS" version="2.0">
<header><CREATION_DATE/><ORIGINATOR/></header><body><segment><metadata><OBJECT_NAME>ONEWEB-0362</OBJECT_NAME><OBJECT_ID>2021-090K</OBJECT_ID><CENTER_NAME>EARTH</CENTER_NAME><REF_FRAME>TEME</REF_FRAME><TIME_SYSTEM>UTC</TIME_SYSTEM><MEAN_ELEMENT_THEORY>SGP4</MEAN_ELEMENT_THEORY></metadata><data><meanElements><EPOCH>2025-01-23T14:42:04.732128</EPOCH><MEAN_MOTION>13.19723793</MEAN_MOTION><ECCENTRICITY>.0002071</ECCENTRICITY><INCLINATION>87.9147</INCLINATION><RA_OF_ASC_NODE>46.2925</RA_OF_ASC_NODE><ARG_OF_PERICENTER>96.7080</ARG_OF_PERICENTER><MEAN_ANOMALY>263.4288</MEAN_ANOMALY></meanElements><tleParameters><EPHEMERIS_TYPE>0</EPHEMERIS_TYPE><CLASSIFICATION_TYPE>U</CLASSIFICATION_TYPE><NORAD_CAT_ID>49288</NORAD_CAT_ID><ELEMENT_SET_NO>999</ELEMENT_SET_NO><REV_AT_EPOCH>15970</REV_AT_EPOCH><BSTAR>.10631E-3</BSTAR><MEAN_MOTION_DOT>.56E-6</MEAN_MOTION_DOT><MEAN_MOTION_DDOT>0</MEAN_MOTION_DDOT></tleParameters></data></segment></body></omm>
<omm id="CCSDS_OMM_VERS" version="2.0">
<header><CREATION_DATE/><ORIGINATOR/></header><body><segment><metadata><OBJECT_NAME>ONEWEB-0363</OBJECT_NAME><OBJECT_ID>2021-090L</OBJECT_ID><CENTER_NAME>EARTH</CENTER_NAME><REF_FRAME>TEME</REF_FRAME><TIME_SYSTEM>UTC</TIME_SYSTEM><MEAN_ELEMENT_THEORY>SGP4</MEAN_ELEMENT_THEORY></metadata><data><meanElements><EPOCH>2025-01-23T11:21:01.209888</EPOCH><MEAN_MOTION>13.20773990</MEAN_MOTION><ECCENTRICITY>.0001628</ECCENTRICITY><INCLINATION>87.9258</INCLINATION><RA_OF_ASC_NODE>15.8503</RA_OF_ASC_NODE><ARG_OF_PERICENTER>72.4880</ARG_OF_PERICENTER><MEAN_ANOMALY>287.6431</MEAN_ANOMALY></meanElements><tleParameters><EPHEMERIS_TYPE>0</EPHEMERIS_TYPE><CLASSIFICATION_TYPE>U</CLASSIFICATION_TYPE><NORAD_CAT_ID>49289</NORAD_CAT_ID><ELEMENT_SET_NO>999</ELEMENT_SET_NO><REV_AT_EPOCH>16302</REV_AT_EPOCH><BSTAR>.29737E-3</BSTAR><MEAN_MOTION_DOT>.134E-5</MEAN_MOTION_DOT><MEAN_MOTION_DDOT>0</MEAN_MOTION_DDOT></tleParameters></data></segment></body></omm>
<omm id="CCSDS_OMM_VERS" version="2.0">
<header><CREATION_DATE/><ORIGINATOR/></header><body><segment><metadata><OBJECT_NAME>ONEWEB-0364</OBJECT_NAME><OBJECT_ID>2021-090M</OBJECT_ID><CENTER_NAME>EARTH</CENTER_NAME><REF_FRAME>TEME</REF_FRAME><TIME_SYSTEM>UTC</TIME_SYSTEM><MEAN_ELEMENT_THEORY>SGP4</MEAN_ELEMENT_THEORY></metadata><data><meanElements><EPOCH>2025-01-23T12:15:34.317504</EPOCH><MEAN_MOTION>13.20769867</MEAN_MOTION><ECCENTRICITY>.0001646</ECCENTRICITY><INCLINATION>87.9256</INCLINATION><RA_OF_ASC_NODE>15.8710</RA_OF_ASC_NODE><ARG_OF_PERICENTER>85.4340</ARG_OF_PERICENTER><MEAN_ANOMALY>274.6982</MEAN_ANOMALY></meanElements><tleParameters><EPHEMERIS_TYPE>0</EPHEMERIS_TYPE><CLASSIFICATION_TYPE>U</CLASSIFICATION_TYPE><NORAD_CAT_ID>49290</NORAD_CAT_ID><ELEMENT_SET_NO>999</ELEMENT_SET_NO><REV_AT_EPOCH>16416</REV_AT_EPOCH><BSTAR>.21611E-3</BSTAR><MEAN_MOTION_DOT>.101E-5</MEAN_MOTION_DOT><MEAN_MOTION_DDOT>0</MEAN_MOTION_DDOT></tleParameters></data></segment></body></omm>
<omm id="CCSDS_OMM_VERS" version="2.0">
<header><CREATION_DATE/><ORIGINATOR/></header><body><segment><metadata><OBJECT_NAME>ONEWEB-0365</OBJECT_NAME><OBJECT_ID>2021-090N</OBJECT_ID><CENTER_NAME>EARTH</CENTER_NAME><REF_FRAME>TEME</REF_FRAME><TIME_SYSTEM>UTC</TIME_SYSTEM><MEAN_ELEMENT_THEORY>SGP4</MEAN_ELEMENT_THEORY></metadata><data><meanElements><EPOCH>2025-01-23T13:06:32.658912</EPOCH><MEAN_MOTION>13.19723495</MEAN_MOTION><ECCENTRICITY>.0001976</ECCENTRICITY><INCLINATION>87.9146</INCLINATION><RA_OF_ASC_NODE>46.2708</RA_OF_ASC_NODE><ARG_OF_PERICENTER>92.3061</ARG_OF_PERICENTER><MEAN_ANOMALY>267.8298</MEAN_ANOMALY></meanElements><tleParameters><EPHEMERIS_TYPE>0</EPHEMERIS_TYPE><CLASSIFICATION_TYPE>U</CLASSIFICATION_TYPE><NORAD_CAT_ID>49291</NORAD_CAT_ID><ELEMENT_SET_NO>999</ELEMENT_SET_NO><REV_AT_EPOCH>15920</REV_AT_EPOCH><BSTAR>.5858E-4</BSTAR><MEAN_MOTION_DOT>.36E-6</MEAN_MOTION_DOT><MEAN_MOTION_DDOT>0</MEAN_MOTION_DDOT></tleParameters></data></segment></body></omm>
<omm id="CCSDS_OMM_VERS" version="2.0">
<header><CREATION_DATE/><ORIGINATOR/></header><body><segment><metadata><OBJECT_NAME>ONEWEB-0366</OBJECT_NAME><OBJECT_ID>2021-090P</OBJECT_ID><CENTER_NAME>EARTH</CENTER_NAME><REF_FRAME>TEME</REF_FRAME><TIME_SYSTEM>UTC</TIME_SYSTEM><MEAN_ELEMENT_THEORY>SGP4</MEAN_ELEMENT_THEORY></metadata><data><meanElements><EPOCH>2025-01-23T12:32:54.637440</EPOCH><MEAN_MOTION>13.14501986</MEAN_MOTION><ECCENTRICITY>.0001714</ECCENTRICITY><INCLINATION>87.8990</INCLINATION><RA_OF_ASC_NODE>31.0556</RA_OF_ASC_NODE><ARG_OF_PERICENTER>87.6481</ARG_OF_PERICENTER><MEAN_ANOMALY>272.4845</MEAN_ANOMALY></meanElements><tleParameters><EPHEMERIS_TYPE>0</EPHEMERIS_TYPE><CLASSIFICATION_TYPE>U</CLASSIFICATION_TYPE><NORAD_CAT_ID>49292</NORAD_CAT_ID><ELEMENT_SET_NO>999</ELEMENT_SET_NO><REV_AT_EPOCH>16060</REV_AT_EPOCH><BSTAR>.11979E-3</BSTAR><MEAN_MOTION_DOT>.57E-6</MEAN_MOTION_DOT><MEAN_MOTION_DDOT>0</MEAN_MOTION_DDOT></tleParameters></data></segment></body></omm>
<omm id="CCSDS_OMM_VERS" version="2.0">
<header><CREATION_DATE/><ORIGINATOR/></header><body><segment><metadata><OBJECT_NAME>ONEWEB-0367</OBJECT_NAME><OBJECT_ID>2021-090Q</OBJECT_ID><CENTER_NAME>EARTH</CENTER_NAME><REF_FRAME>TEME</REF_FRAME><TIME_SYSTEM>UTC</TIME_SYSTEM><MEAN_ELEMENT_THEORY>SGP4</MEAN_ELEMENT_THEORY></metadata><data><meanElements><EPOCH>2025-01-23T11:18:46.608192</EPOCH><MEAN_MOTION>13.20774008</MEAN_MOTION><ECCENTRICITY>.0001776</ECCENTRICITY><INCLINATION>87.9259</INCLINATION><RA_OF_ASC_NODE>15.8455</RA_OF_ASC_NODE><ARG_OF_PERICENTER>90.9076</ARG_OF_PERICENTER><MEAN_ANOMALY>269.2261</MEAN_ANOMALY></meanElements><tleParameters><EPHEMERIS_TYPE>0</EPHEMERIS_TYPE><CLASSIFICATION_TYPE>U</CLASSIFICATION_TYPE><NORAD_CAT_ID>49293</NORAD_CAT_ID><ELEMENT_SET_NO>999</ELEMENT_SET_NO><REV_AT_EPOCH>16254</REV_AT_EPOCH><BSTAR>.15767E-3</BSTAR><MEAN_MOTION_DOT>.77E-6</MEAN_MOTION_DOT><MEAN_MOTION_DDOT>0</MEAN_MOTION_DDOT></tleParameters></data></segment></body></omm>

</ndm>
